start=new Date('2023-04-01T00:00:00.000Z').valueOf();
sats=[{"RCS_SIZE":"LARGE","CLASSIFICATION_TYPE":"U","PERIOD":"95.437","REF_FRAME":"TEME","TLE_LINE1":"1 52552U 22051V   23090.77084317  .00009785  00000-0  63179-3 0  9998","RA_OF_ASC_NODE":"270.1329","SITE":"AFWTR","MEAN_MOTION":"15.08852814","GP_ID":"229208814","ECCENTRICITY":"0.00012420","MEAN_ELEMENT_THEORY":"SGP4","EPOCH":"2023-03-31T18:30:00.849888","ELEMENT_SET_NO":"999","TIME_SYSTEM":"UTC","ARG_OF_PERICENTER":"87.0843","TLE_LINE2":"2 52552  53.2139 270.1329 0001242  87.0843 273.0291 15.08852814 49398","COUNTRY_CODE":"US","LAUNCH_DATE":"2022-05-13","DECAY_DATE":null,"OBJECT_ID":"2022-051V","EPHEMERIS_TYPE":"0","INCLINATION":"53.2139","OBJECT_NAME":"STARLINK-3966","MEAN_ANOMALY":"273.0291","NORAD_CAT_ID":"52552","APOAPSIS":"540.565","MEAN_MOTION_DDOT":"0.0000000000000","BSTAR":"0.00063179000000","FILE":"3876641","SEMIMAJOR_AXIS":"6917.841","CENTER_NAME":"EARTH","MEAN_MOTION_DOT":"0.00009785","OBJECT_TYPE":"PAYLOAD","REV_AT_EPOCH":"4939","PERIAPSIS":"538.847"},{"DECAY_DATE":null,"COUNTRY_CODE":"US","LAUNCH_DATE":"2022-05-13","INCLINATION":"53.2135","OBJECT_NAME":"STARLINK-3858","MEAN_ANOMALY":"261.8951","EPHEMERIS_TYPE":"0","OBJECT_ID":"2022-051W","APOAPSIS":"540.612","NORAD_CAT_ID":"52553","FILE":"3876375","BSTAR":"0.00046674000000","MEAN_MOTION_DDOT":"0.0000000000000","MEAN_MOTION_DOT":"0.00007148","CENTER_NAME":"EARTH","SEMIMAJOR_AXIS":"6917.888","REV_AT_EPOCH":"4935","OBJECT_TYPE":"PAYLOAD","PERIAPSIS":"538.894","RCS_SIZE":"LARGE","PERIOD":"95.438","CLASSIFICATION_TYPE":"U","TLE_LINE1":"1 52553U 22051W   23090.52060380  .00007148  00000-0  46674-3 0  9998","REF_FRAME":"TEME","SITE":"AFWTR","RA_OF_ASC_NODE":"271.2533","MEAN_MOTION":"15.08837599","MEAN_ELEMENT_THEORY":"SGP4","ECCENTRICITY":"0.00012420","GP_ID":"229202410","TIME_SYSTEM":"UTC","EPOCH":"2023-03-31T12:29:40.168320","ELEMENT_SET_NO":"999","ARG_OF_PERICENTER":"98.2182","TLE_LINE2":"2 52553  53.2135 271.2533 0001242  98.2182 261.8951 15.08837599 49351"},{"REF_FRAME":"TEME","TLE_LINE1":"1 52554U 22051X   23090.82374447  .00004183  00000-0  28070-3 0  9990","RA_OF_ASC_NODE":"274.8951","SITE":"AFWTR","RCS_SIZE":"LARGE","CLASSIFICATION_TYPE":"U","PERIOD":"95.437","ELEMENT_SET_NO":"999","EPOCH":"2023-03-31T19:46:11.522208","TIME_SYSTEM":"UTC","ARG_OF_PERICENTER":"80.3038","TLE_LINE2":"2 52554  53.2136 274.8951 0001212  80.3038 279.8091 15.08846970 49329","MEAN_MOTION":"15.08846970","GP_ID":"229208813","ECCENTRICITY":"0.00012120","MEAN_ELEMENT_THEORY":"SGP4","NORAD_CAT_ID":"52554","APOAPSIS":"540.563","COUNTRY_CODE":"US","LAUNCH_DATE":"2022-05-13","DECAY_DATE":null,"OBJECT_ID":"2022-051X","EPHEMERIS_TYPE":"0","INCLINATION":"53.2136","MEAN_ANOMALY":"279.8091","OBJECT_NAME":"STARLINK-3770","OBJECT_TYPE":"PAYLOAD","REV_AT_EPOCH":"4932","PERIAPSIS":"538.886","MEAN_MOTION_DDOT":"0.0000000000000","BSTAR":"0.00028070000000","FILE":"3876641","SEMIMAJOR_AXIS":"6917.859","CENTER_NAME":"EARTH","MEAN_MOTION_DOT":"0.00004183"},{"REV_AT_EPOCH":"4935","OBJECT_TYPE":"PAYLOAD","PERIAPSIS":"538.606","FILE":"3876375","MEAN_MOTION_DDOT":"0.0000000000000","BSTAR":"0.00032780000000","MEAN_MOTION_DOT":"0.00004934","SEMIMAJOR_AXIS":"6917.854","CENTER_NAME":"EARTH","APOAPSIS":"540.832","NORAD_CAT_ID":"52555","DECAY_DATE":null,"LAUNCH_DATE":"2022-05-13","COUNTRY_CODE":"US","MEAN_ANOMALY":"274.2483","INCLINATION":"53.2132","OBJECT_NAME":"STARLINK-3949","EPHEMERIS_TYPE":"0","OBJECT_ID":"2022-051Y","ELEMENT_SET_NO":"999","EPOCH":"2023-03-31T12:19:04.319616","TIME_SYSTEM":"UTC","ARG_OF_PERICENTER":"85.8693","TLE_LINE2":"2 52555  53.2132 271.2872 0001609  85.8693 274.2483 15.08848522 49358","MEAN_MOTION":"15.08848522","MEAN_ELEMENT_THEORY":"SGP4","GP_ID":"229202012","ECCENTRICITY":"0.00016090","TLE_LINE1":"1 52555U 22051Y   23090.51324444  .00004934  00000-0  32780-3 0  9996","REF_FRAME":"TEME","SITE":"AFWTR","RA_OF_ASC_NODE":"271.2872","RCS_SIZE":"LARGE","PERIOD":"95.437","CLASSIFICATION_TYPE":"U"},{"RCS_SIZE":"LARGE","PERIOD":"94.987","CLASSIFICATION_TYPE":"U","TLE_LINE1":"1 52556U 22051Z   23090.65937818  .00033227  00000-0  17175-2 0  9994","REF_FRAME":"TEME","SITE":"AFWTR","RA_OF_ASC_NODE":"272.5871","MEAN_MOTION":"15.16001500","MEAN_ELEMENT_THEORY":"SGP4","GP_ID":"229202405","ECCENTRICITY":"0.00009820","TIME_SYSTEM":"UTC","ELEMENT_SET_NO":"999","EPOCH":"2023-03-31T15:49:30.274752","ARG_OF_PERICENTER":"264.4493","TLE_LINE2":"2 52556  53.2171 272.5871 0000982 264.4493  95.6391 15.16001500 49349","DECAY_DATE":null,"COUNTRY_CODE":"US","LAUNCH_DATE":"2022-05-13","MEAN_ANOMALY":"95.6391","OBJECT_NAME":"STARLINK-3763","EPHEMERIS_TYPE":"0","INCLINATION":"53.2171","OBJECT_ID":"2022-051Z","APOAPSIS":"518.619","NORAD_CAT_ID":"52556","FILE":"3876375","BSTAR":"0.00171750000000","MEAN_MOTION_DDOT":"0.0000000000000","MEAN_MOTION_DOT":"0.00033227","CENTER_NAME":"EARTH","SEMIMAJOR_AXIS":"6896.077","REV_AT_EPOCH":"4934","OBJECT_TYPE":"PAYLOAD","PERIAPSIS":"517.265"},{"INCLINATION":"53.2142","OBJECT_NAME":"STARLINK-3943","MEAN_ANOMALY":"286.0452","EPHEMERIS_TYPE":"0","OBJECT_ID":"2022-051AA","DECAY_DATE":null,"COUNTRY_CODE":"US","LAUNCH_DATE":"2022-05-13","APOAPSIS":"540.733","NORAD_CAT_ID":"52557","MEAN_MOTION_DOT":"0.00004971","CENTER_NAME":"EARTH","SEMIMAJOR_AXIS":"6917.856","FILE":"3876632","BSTAR":"0.00033010000000","MEAN_MOTION_DDOT":"0.0000000000000","PERIAPSIS":"538.708","REV_AT_EPOCH":"4939","OBJECT_TYPE":"PAYLOAD","PERIOD":"95.437","CLASSIFICATION_TYPE":"U","RCS_SIZE":"LARGE","SITE":"AFWTR","RA_OF_ASC_NODE":"270.1432","TLE_LINE1":"1 52557U 22051AA  23090.76716235  .00004971  00000-0  33010-3 0  9996","REF_FRAME":"TEME","MEAN_ELEMENT_THEORY":"SGP4","GP_ID":"229208560","ECCENTRICITY":"0.00014640","MEAN_MOTION":"15.08848099","ARG_OF_PERICENTER":"74.0702","TLE_LINE2":"2 52557  53.2142 270.1432 0001464  74.0702 286.0452 15.08848099 49391","TIME_SYSTEM":"UTC","ELEMENT_SET_NO":"999","EPOCH":"2023-03-31T18:24:42.827040"},{"TLE_LINE2":"2 52558  53.2147 260.1413 0000904 101.6237 258.4857 15.08856874 49520","ARG_OF_PERICENTER":"101.6237","ELEMENT_SET_NO":"999","EPOCH":"2023-03-31T18:26:01.989312","TIME_SYSTEM":"UTC","MEAN_ELEMENT_THEORY":"SGP4","GP_ID":"229208554","ECCENTRICITY":"0.00009040","MEAN_MOTION":"15.08856874","SITE":"AFWTR","RA_OF_ASC_NODE":"260.1413","TLE_LINE1":"1 52558U 22051AB  23090.76807858  .00018403  00000-0  11708-2 0  9993","REF_FRAME":"TEME","PERIOD":"95.436","CLASSIFICATION_TYPE":"U","RCS_SIZE":"LARGE","PERIAPSIS":"539.068","REV_AT_EPOCH":"4952","OBJECT_TYPE":"PAYLOAD","MEAN_MOTION_DOT":"0.00018403","SEMIMAJOR_AXIS":"6917.829","CENTER_NAME":"EARTH","FILE":"3876641","MEAN_MOTION_DDOT":"0.0000000000000","BSTAR":"0.00117080000000","APOAPSIS":"540.319","NORAD_CAT_ID":"52558","MEAN_ANOMALY":"258.4857","INCLINATION":"53.2147","EPHEMERIS_TYPE":"0","OBJECT_NAME":"STARLINK-3954","OBJECT_ID":"2022-051AB","DECAY_DATE":null,"COUNTRY_CODE":"US","LAUNCH_DATE":"2022-05-13"},{"TIME_SYSTEM":"UTC","ELEMENT_SET_NO":"999","EPOCH":"2023-03-31T12:20:25.645344","ARG_OF_PERICENTER":"24.7063","TLE_LINE2":"2 52559  53.2155 261.4661 0000854  24.7063 335.3969 15.08841886 49486","MEAN_MOTION":"15.08841886","ECCENTRICITY":"0.00008540","GP_ID":"229202409","MEAN_ELEMENT_THEORY":"SGP4","REF_FRAME":"TEME","TLE_LINE1":"1 52559U 22051AC  23090.51418571  .00003836  00000-0  25897-3 0  9996","RA_OF_ASC_NODE":"261.4661","SITE":"AFWTR","RCS_SIZE":"LARGE","CLASSIFICATION_TYPE":"U","PERIOD":"95.437","OBJECT_TYPE":"PAYLOAD","REV_AT_EPOCH":"4948","PERIAPSIS":"539.149","BSTAR":"0.00025897000000","MEAN_MOTION_DDOT":"0.0000000000000","FILE":"3876375","CENTER_NAME":"EARTH","SEMIMAJOR_AXIS":"6917.875","MEAN_MOTION_DOT":"0.00003836","NORAD_CAT_ID":"52559","APOAPSIS":"540.330","COUNTRY_CODE":"US","LAUNCH_DATE":"2022-05-13","DECAY_DATE":null,"OBJECT_ID":"2022-051AC","MEAN_ANOMALY":"335.3969","INCLINATION":"53.2155","OBJECT_NAME":"STARLINK-3953","EPHEMERIS_TYPE":"0"},{"TIME_SYSTEM":"UTC","EPOCH":"2023-03-31T18:20:44.032128","ELEMENT_SET_NO":"999","TLE_LINE2":"2 52560  53.2150 260.1586 0000948  82.8182 277.2918 15.08859228 49528","ARG_OF_PERICENTER":"82.8182","MEAN_MOTION":"15.08859228","ECCENTRICITY":"0.00009480","GP_ID":"229208806","MEAN_ELEMENT_THEORY":"SGP4","REF_FRAME":"TEME","TLE_LINE1":"1 52560U 22051AD  23090.76439852  .00016629  00000-0  10599-2 0  9996","RA_OF_ASC_NODE":"260.1586","SITE":"AFWTR","RCS_SIZE":"LARGE","CLASSIFICATION_TYPE":"U","PERIOD":"95.436","OBJECT_TYPE":"PAYLOAD","REV_AT_EPOCH":"4952","PERIAPSIS":"539.031","BSTAR":"0.00105990000000","MEAN_MOTION_DDOT":"0.0000000000000","FILE":"3876641","CENTER_NAME":"EARTH","SEMIMAJOR_AXIS":"6917.822","MEAN_MOTION_DOT":"0.00016629","NORAD_CAT_ID":"52560","APOAPSIS":"540.342","COUNTRY_CODE":"US","LAUNCH_DATE":"2022-05-13","DECAY_DATE":null,"OBJECT_ID":"2022-051AD","OBJECT_NAME":"STARLINK-3956","MEAN_ANOMALY":"277.2918","EPHEMERIS_TYPE":"0","INCLINATION":"53.2150"},{"CLASSIFICATION_TYPE":"U","PERIOD":"95.437","RCS_SIZE":"LARGE","RA_OF_ASC_NODE":"274.9384","SITE":"AFWTR","REF_FRAME":"TEME","TLE_LINE1":"1 52561U 22051AE  23090.81269642  .00004749  00000-0  31612-3 0  9991","GP_ID":"229208823","ECCENTRICITY":"0.00010010","MEAN_ELEMENT_THEORY":"SGP4","MEAN_MOTION":"15.08854673","TLE_LINE2":"2 52561  53.2155 274.9384 0001001  85.4785 274.6321 15.08854673 49328","ARG_OF_PERICENTER":"85.4785","TIME_SYSTEM":"UTC","EPOCH":"2023-03-31T19:30:16.970688","ELEMENT_SET_NO":"999","OBJECT_ID":"2022-051AE","MEAN_ANOMALY":"274.6321","INCLINATION":"53.2155","OBJECT_NAME":"STARLINK-3955","EPHEMERIS_TYPE":"0","COUNTRY_CODE":"US","LAUNCH_DATE":"2022-05-13","DECAY_DATE":null,"NORAD_CAT_ID":"52561","APOAPSIS":"540.393","CENTER_NAME":"EARTH","SEMIMAJOR_AXIS":"6917.836","MEAN_MOTION_DOT":"0.00004749","BSTAR":"0.00031612000000","MEAN_MOTION_DDOT":"0.0000000000000","FILE":"3876632","PERIAPSIS":"539.008","OBJECT_TYPE":"PAYLOAD","REV_AT_EPOCH":"4932"}];
